[{"OBJECT_NAME":"TEN-KOH","OBJECT_ID":"2018-084G","EPOCH":"2026-03-09T23:23:52.653408","MEAN_MOTION":15.02465351,"ECCENTRICITY":0.0011972,"INCLINATION":98.0798,"RA_OF_ASC_NODE":257.1735,"ARG_OF_PERICENTER":91.8355,"MEAN_ANOMALY":268.424,"EPHEMERIS_TYPE":0,"CLASSIFICATION_TYPE":"U","NORAD_CAT_ID":43677,"ELEMENT_SET_NO":999,"REV_AT_EPOCH":40126,"BSTAR":0.00025918134,"MEAN_MOTION_DOT":3.377e-5,"MEAN_MOTION_DDOT":0},{"OBJECT_NAME":"STARLINK-5877","OBJECT_ID":"2023-058AP","EPOCH":"2026-03-09T23:06:40.944960","MEAN_MOTION":15.05648727,"ECCENTRICITY":0.00017819,"INCLINATION":97.6041,"RA_OF_ASC_NODE":71.4255,"ARG_OF_PERICENTER":80.0636,"MEAN_ANOMALY":280.0792,"EPHEMERIS_TYPE":0,"CLASSIFICATION_TYPE":"U","NORAD_CAT_ID":56354,"ELEMENT_SET_NO":999,"REV_AT_EPOCH":15823,"BSTAR":5.2843646e-5,"MEAN_MOTION_DOT":7.02e-6,"MEAN_MOTION_DDOT":0}]
